1 43013U 17073A   26141.92132733  .00000045  00000+0  42220-4 0  9995
2 43013  98.7764  81.6188 0001198  41.5360 318.5907 14.19506239440746
